LEMUR-2-MYRA            
1 66787U 25276EC  26204.13815039  .00006344  00000+0  50413-3 0  9992
2 66787  97.5228 273.8495 0018459  29.8071 330.4201 15.00655988 35605
LEMUR-2 FIKRETDENGIZ    
1 67363U 26004A   26204.23432764  .00003712  00000+0  40441-3 0  9990
2 67363  97.8036 202.2466 0009598  32.4337 327.7468 14.88560956 28644
TWILIGHT-1 OBJECT B     
1 67364U 26004B   26201.98878606  .00001110  00000+0  12740-3 0  9990
2 67364  97.8078 200.0319 0009314  28.9865 331.1867 14.87805943 28319
LEMUR-2-MARIO-SOUSA     
1 67365U 26004C   26204.01141364  .00004769  00000+0  51518-3 0  9991
2 67365  97.8007 202.0217 0009235  35.0508 325.1315 14.88774825 28626
LEMUR-2-SONNENBLUME     
1 67367U 26004E   26203.94851722  .00002415  00000+0  26574-3 0  9990
2 67367  97.8005 201.9290 0008904  35.7911 324.3902 14.88482895 28617
LEMUR-2-WOBLER          
1 67368U 26004F   26204.00372177  .00004214  00000+0  45634-3 0  9998
2 67368  97.8057 202.1425 0008844  27.6179 332.5506 14.88739084 28624
LEMUR-2-GRAM-E-SUE      
1 67370U 26004H   26204.26532496  .00002193  00000+0  24105-3 0  9995
2 67370  97.7994 202.2579 0008118  38.5848 321.5948 14.88617572 28664
LEMUR-2-KATIE           
1 67387U 26004AA  26203.94468344  .00004891  00000+0  50902-3 0  9998
2 67387  97.8053 202.5193 0002772  14.1370 345.9925 14.90299200 28633
LEMUR-2-HCS-BAZUS       
1 67388U 26004AB  26204.01013792  .00003970  00000+0  41422-3 0  9995
2 67388  97.8041 202.5614 0002262  15.3076 344.8210 14.90302841 28641
