{"fetched_at":"2026-07-23T17:55:13.276Z","source":"https://celestrak.org/NORAD/elements/gp.php?GROUP=spire&FORMAT=JSON","constellation":"spire","records":[{"OBJECT_NAME":"LEMUR-2-MYRA","OBJECT_ID":"2025-276EC","EPOCH":"2026-07-23T03:18:56.193696","CLASSIFICATION_TYPE":"U","MEAN_MOTION":15.00655988,"ECCENTRICITY":0.00184599,"INCLINATION":97.5228,"RA_OF_ASC_NODE":273.8495,"ARG_OF_PERICENTER":29.8071,"MEAN_ANOMALY":330.4201,"EPHEMERIS_TYPE":0,"NORAD_CAT_ID":66787,"ELEMENT_SET_NO":999,"REV_AT_EPOCH":3560,"BSTAR":0.00050413363,"MEAN_MOTION_DOT":0.00006344,"MEAN_MOTION_DDOT":0},{"OBJECT_NAME":"LEMUR-2 FIKRETDENGIZ","OBJECT_ID":"2026-004A","EPOCH":"2026-07-23T05:37:25.908096","CLASSIFICATION_TYPE":"U","MEAN_MOTION":14.88560956,"ECCENTRICITY":0.00095988,"INCLINATION":97.8036,"RA_OF_ASC_NODE":202.2466,"ARG_OF_PERICENTER":32.4337,"MEAN_ANOMALY":327.7468,"EPHEMERIS_TYPE":0,"NORAD_CAT_ID":67363,"ELEMENT_SET_NO":999,"REV_AT_EPOCH":2864,"BSTAR":0.00040440968,"MEAN_MOTION_DOT":0.00003712,"MEAN_MOTION_DDOT":0},{"OBJECT_NAME":"TWILIGHT-1 OBJECT B","OBJECT_ID":"2026-004B","EPOCH":"2026-07-20T23:43:51.115584","CLASSIFICATION_TYPE":"U","MEAN_MOTION":14.87805943,"ECCENTRICITY":0.00093149,"INCLINATION":97.8078,"RA_OF_ASC_NODE":200.0319,"ARG_OF_PERICENTER":28.9865,"MEAN_ANOMALY":331.1867,"EPHEMERIS_TYPE":0,"NORAD_CAT_ID":67364,"ELEMENT_SET_NO":999,"REV_AT_EPOCH":2831,"BSTAR":0.00012739587,"MEAN_MOTION_DOT":0.0000111,"MEAN_MOTION_DDOT":0},{"OBJECT_NAME":"LEMUR-2-MARIO-SOUSA","OBJECT_ID":"2026-004C","EPOCH":"2026-07-23T00:16:26.138496","CLASSIFICATION_TYPE":"U","MEAN_MOTION":14.88774825,"ECCENTRICITY":0.00092357,"INCLINATION":97.8007,"RA_OF_ASC_NODE":202.0217,"ARG_OF_PERICENTER":35.0508,"MEAN_ANOMALY":325.1315,"EPHEMERIS_TYPE":0,"NORAD_CAT_ID":67365,"ELEMENT_SET_NO":999,"REV_AT_EPOCH":2862,"BSTAR":0.00051518189,"MEAN_MOTION_DOT":0.00004769,"MEAN_MOTION_DDOT":0},{"OBJECT_NAME":"LEMUR-2-SONNENBLUME","OBJECT_ID":"2026-004E","EPOCH":"2026-07-22T22:45:51.887808","CLASSIFICATION_TYPE":"U","MEAN_MOTION":14.88482895,"ECCENTRICITY":0.00089045,"INCLINATION":97.8005,"RA_OF_ASC_NODE":201.929,"ARG_OF_PERICENTER":35.7911,"MEAN_ANOMALY":324.3902,"EPHEMERIS_TYPE":0,"NORAD_CAT_ID":67367,"ELEMENT_SET_NO":999,"REV_AT_EPOCH":2861,"BSTAR":0.00026574293,"MEAN_MOTION_DOT":0.00002415,"MEAN_MOTION_DDOT":0},{"OBJECT_NAME":"LEMUR-2-WOBLER","OBJECT_ID":"2026-004F","EPOCH":"2026-07-23T00:05:21.560928","CLASSIFICATION_TYPE":"U","MEAN_MOTION":14.88739084,"ECCENTRICITY":0.00088447,"INCLINATION":97.8057,"RA_OF_ASC_NODE":202.1425,"ARG_OF_PERICENTER":27.6179,"MEAN_ANOMALY":332.5506,"EPHEMERIS_TYPE":0,"NORAD_CAT_ID":67368,"ELEMENT_SET_NO":999,"REV_AT_EPOCH":2862,"BSTAR":0.00045633589,"MEAN_MOTION_DOT":0.00004214,"MEAN_MOTION_DDOT":0},{"OBJECT_NAME":"LEMUR-2-GRAM-E-SUE","OBJECT_ID":"2026-004H","EPOCH":"2026-07-23T06:22:04.076544","CLASSIFICATION_TYPE":"U","MEAN_MOTION":14.88617572,"ECCENTRICITY":0.0008118,"INCLINATION":97.7994,"RA_OF_ASC_NODE":202.2579,"ARG_OF_PERICENTER":38.5848,"MEAN_ANOMALY":321.5948,"EPHEMERIS_TYPE":0,"NORAD_CAT_ID":67370,"ELEMENT_SET_NO":999,"REV_AT_EPOCH":2866,"BSTAR":0.00024104749,"MEAN_MOTION_DOT":0.00002193,"MEAN_MOTION_DDOT":0},{"OBJECT_NAME":"LEMUR-2-KATIE","OBJECT_ID":"2026-004AA","EPOCH":"2026-07-22T22:40:20.649216","CLASSIFICATION_TYPE":"U","MEAN_MOTION":14.902992,"ECCENTRICITY":0.00027726,"INCLINATION":97.8053,"RA_OF_ASC_NODE":202.5193,"ARG_OF_PERICENTER":14.137,"MEAN_ANOMALY":345.9925,"EPHEMERIS_TYPE":0,"NORAD_CAT_ID":67387,"ELEMENT_SET_NO":999,"REV_AT_EPOCH":2863,"BSTAR":0.0005090192,"MEAN_MOTION_DOT":0.00004891,"MEAN_MOTION_DDOT":0},{"OBJECT_NAME":"LEMUR-2-HCS-BAZUS","OBJECT_ID":"2026-004AB","EPOCH":"2026-07-23T00:14:35.916288","CLASSIFICATION_TYPE":"U","MEAN_MOTION":14.90302841,"ECCENTRICITY":0.00022625,"INCLINATION":97.8041,"RA_OF_ASC_NODE":202.5614,"ARG_OF_PERICENTER":15.3076,"MEAN_ANOMALY":344.821,"EPHEMERIS_TYPE":0,"NORAD_CAT_ID":67388,"ELEMENT_SET_NO":999,"REV_AT_EPOCH":2864,"BSTAR":0.00041422454,"MEAN_MOTION_DOT":0.0000397,"MEAN_MOTION_DDOT":0}]}
